H-2A R/B                
1 28932U 06002B   26066.36560474  .00014763  00000+0  73820-3 0  9990
2 28932  98.2406 213.1891 0051989 249.0451 110.5212 15.16358111 94082
RESURS-DK 1             
1 29228U 06021A   26066.68399068  .00004377  00000+0  25527-3 0  9995
2 29228  69.9312 242.2113 0002093 163.4138 196.7096 15.12726851 87225
CZ-4B R/B               
1 29507U 06046C   26066.69619681  .00006308  00000+0  31979-3 0  9993
2 29507  97.5592 111.6100 0031688 274.6091  85.1523 15.16879781 59749
CZ-2C R/B               
1 31114U 07010B   26066.75328617  .00000188  00000+0  10573-3 0  9992
2 31114  98.3978 180.1291 0057951 300.3427  59.2027 14.20245450979449
COSMO-SKYMED 1          
1 31598U 07023A   26067.05977013  .00005328  00000+0  47386-3 0  9999
2 31598  97.8868 258.0785 0001069 100.7080 259.4262 14.96519683 14660
COSMOS 2428             
1 31792U 07029A   26066.76484512  .00000077  00000+0  66818-4 0  9993
2 31792  70.9429 207.3829 0009031 278.8603  81.1495 14.12945688963827
SL-16 R/B               
1 31793U 07029B   26066.73479862 -.00000023  00000+0  12695-4 0  9999
2 31793  70.9759 176.4937 0002339 276.5468 192.1164 14.14833244965091
KORONAS-FOTON           
1 33504U 09003A   26067.01366612  .00016826  00000+0  37639-3 0  9996
2 33504  82.4273 277.6206 0011184 155.2366 204.9421 15.43279992945489
CZ-2C R/B               
1 37731U 11030B   26066.78795672  .00002629  00000+0  33666-3 0  9992
2 37731  97.8549  24.0892 0052600 358.2553  62.7299 14.81214579789814
H-2A R/B                
1 38341U 12025E   26066.78782976  .00006101  00000+0  55152-3 0  9991
2 38341  98.4738  33.6817 0043464 320.8302  38.9772 14.95149505747936
SHIJIAN-16 (SJ-16)      
1 39358U 13057A   26067.02010095  .00002742  00000+0  27033-3 0  9994
2 39358  74.9736 188.2477 0015523 117.0519 243.2255 14.92335828671252
SL-4 R/B                
1 39679U 14021B   26066.16164549  .00016718  00000+0  36867-3 0  9993
2 39679  51.6088 349.6101 0097798  93.7843 267.4330 15.39078300655885
