CCSDS_OMM_VERS = 2.0
CREATION_DATE  = 
ORIGINATOR     = 

OBJECT_NAME    = H-2A R/B
OBJECT_ID      = 2006-002B
CENTER_NAME    = EARTH
REF_FRAME      = TEME
TIME_SYSTEM    = UTC
MEAN_ELEMENT_THEORY = SGP/SGP4

EPOCH          = 2026-03-07T08:46:28.249536
MEAN_MOTION    = 15.16358111
ECCENTRICITY   = .00519892
INCLINATION    = 98.2406
RA_OF_ASC_NODE = 213.1891
ARG_OF_PERICENTER = 249.0451
MEAN_ANOMALY   = 110.5212

EPHEMERIS_TYPE = 0
CLASSIFICATION_TYPE = U
NORAD_CAT_ID   = 28932
ELEMENT_SET_NO = 999
REV_AT_EPOCH   = 9408
BSTAR          = .73819671E-3
MEAN_MOTION_DOT = .14763E-3
MEAN_MOTION_DDOT = 0

CCSDS_OMM_VERS = 2.0
CREATION_DATE  = 
ORIGINATOR     = 

OBJECT_NAME    = RESURS-DK 1
OBJECT_ID      = 2006-021A
CENTER_NAME    = EARTH
REF_FRAME      = TEME
TIME_SYSTEM    = UTC
MEAN_ELEMENT_THEORY = SGP/SGP4

EPOCH          = 2026-03-07T16:24:56.795616
MEAN_MOTION    = 15.12726851
ECCENTRICITY   = .00020927
INCLINATION    = 69.9312
RA_OF_ASC_NODE = 242.2113
ARG_OF_PERICENTER = 163.4138
MEAN_ANOMALY   = 196.7096

EPHEMERIS_TYPE = 0
CLASSIFICATION_TYPE = U
NORAD_CAT_ID   = 29228
ELEMENT_SET_NO = 999
REV_AT_EPOCH   = 8722
BSTAR          = .25527479E-3
MEAN_MOTION_DOT = .4377E-4
MEAN_MOTION_DDOT = 0

CCSDS_OMM_VERS = 2.0
CREATION_DATE  = 
ORIGINATOR     = 

OBJECT_NAME    = CZ-4B R/B
OBJECT_ID      = 2006-046C
CENTER_NAME    = EARTH
REF_FRAME      = TEME
TIME_SYSTEM    = UTC
MEAN_ELEMENT_THEORY = SGP/SGP4

EPOCH          = 2026-03-07T16:42:31.405248
MEAN_MOTION    = 15.16879781
ECCENTRICITY   = .00316883
INCLINATION    = 97.5592
RA_OF_ASC_NODE = 111.6100
ARG_OF_PERICENTER = 274.6091
MEAN_ANOMALY   = 85.1523

EPHEMERIS_TYPE = 0
CLASSIFICATION_TYPE = U
NORAD_CAT_ID   = 29507
ELEMENT_SET_NO = 999
REV_AT_EPOCH   = 5974
BSTAR          = .31979256E-3
MEAN_MOTION_DOT = .6308E-4
MEAN_MOTION_DDOT = 0

CCSDS_OMM_VERS = 2.0
CREATION_DATE  = 
ORIGINATOR     = 

OBJECT_NAME    = CZ-2C R/B
OBJECT_ID      = 2007-010B
CENTER_NAME    = EARTH
REF_FRAME      = TEME
TIME_SYSTEM    = UTC
MEAN_ELEMENT_THEORY = SGP/SGP4

EPOCH          = 2026-03-07T18:04:43.925088
MEAN_MOTION    = 14.20245450
ECCENTRICITY   = .0057951
INCLINATION    = 98.3978
RA_OF_ASC_NODE = 180.1291
ARG_OF_PERICENTER = 300.3427
MEAN_ANOMALY   = 59.2027

EPHEMERIS_TYPE = 0
CLASSIFICATION_TYPE = U
NORAD_CAT_ID   = 31114
ELEMENT_SET_NO = 999
REV_AT_EPOCH   = 97944
BSTAR          = .105727E-3
MEAN_MOTION_DOT = .188E-5
MEAN_MOTION_DDOT = 0

CCSDS_OMM_VERS = 2.0
CREATION_DATE  = 
ORIGINATOR     = 

OBJECT_NAME    = COSMO-SKYMED 1
OBJECT_ID      = 2007-023A
CENTER_NAME    = EARTH
REF_FRAME      = TEME
TIME_SYSTEM    = UTC
MEAN_ELEMENT_THEORY = SGP/SGP4

EPOCH          = 2026-03-08T01:26:04.139232
MEAN_MOTION    = 14.96519683
ECCENTRICITY   = .0001069
INCLINATION    = 97.8868
RA_OF_ASC_NODE = 258.0785
ARG_OF_PERICENTER = 100.7080
MEAN_ANOMALY   = 259.4262

EPHEMERIS_TYPE = 0
CLASSIFICATION_TYPE = U
NORAD_CAT_ID   = 31598
ELEMENT_SET_NO = 999
REV_AT_EPOCH   = 1466
BSTAR          = .47386E-3
MEAN_MOTION_DOT = .5328E-4
MEAN_MOTION_DDOT = 0

CCSDS_OMM_VERS = 2.0
CREATION_DATE  = 
ORIGINATOR     = 

OBJECT_NAME    = COSMOS 2428
OBJECT_ID      = 2007-029A
CENTER_NAME    = EARTH
REF_FRAME      = TEME
TIME_SYSTEM    = UTC
MEAN_ELEMENT_THEORY = SGP/SGP4

EPOCH          = 2026-03-07T18:21:22.618368
MEAN_MOTION    = 14.12945688
ECCENTRICITY   = .0009031
INCLINATION    = 70.9429
RA_OF_ASC_NODE = 207.3829
ARG_OF_PERICENTER = 278.8603
MEAN_ANOMALY   = 81.1495

EPHEMERIS_TYPE = 0
CLASSIFICATION_TYPE = U
NORAD_CAT_ID   = 31792
ELEMENT_SET_NO = 999
REV_AT_EPOCH   = 96382
BSTAR          = .66818018E-4
MEAN_MOTION_DOT = .77E-6
MEAN_MOTION_DDOT = 0

CCSDS_OMM_VERS = 2.0
CREATION_DATE  = 
ORIGINATOR     = 

OBJECT_NAME    = SL-16 R/B
OBJECT_ID      = 2007-029B
CENTER_NAME    = EARTH
REF_FRAME      = TEME
TIME_SYSTEM    = UTC
MEAN_ELEMENT_THEORY = SGP/SGP4

EPOCH          = 2026-03-07T17:38:06.600768
MEAN_MOTION    = 14.14833244
ECCENTRICITY   = .00023385
INCLINATION    = 70.9759
RA_OF_ASC_NODE = 176.4937
ARG_OF_PERICENTER = 276.5468
MEAN_ANOMALY   = 192.1164

EPHEMERIS_TYPE = 0
CLASSIFICATION_TYPE = U
NORAD_CAT_ID   = 31793
ELEMENT_SET_NO = 999
REV_AT_EPOCH   = 96509
BSTAR          = .12695452E-4
MEAN_MOTION_DOT = -.23E-6
MEAN_MOTION_DDOT = 0

CCSDS_OMM_VERS = 2.0
CREATION_DATE  = 
ORIGINATOR     = 

OBJECT_NAME    = KORONAS-FOTON
OBJECT_ID      = 2009-003A
CENTER_NAME    = EARTH
REF_FRAME      = TEME
TIME_SYSTEM    = UTC
MEAN_ELEMENT_THEORY = SGP/SGP4

EPOCH          = 2026-03-08T00:19:40.752768
MEAN_MOTION    = 15.43279992
ECCENTRICITY   = .0011184
INCLINATION    = 82.4273
RA_OF_ASC_NODE = 277.6206
ARG_OF_PERICENTER = 155.2366
MEAN_ANOMALY   = 204.9421

EPHEMERIS_TYPE = 0
CLASSIFICATION_TYPE = U
NORAD_CAT_ID   = 33504
ELEMENT_SET_NO = 999
REV_AT_EPOCH   = 94548
BSTAR          = .37639E-3
MEAN_MOTION_DOT = .16826E-3
MEAN_MOTION_DDOT = 0

CCSDS_OMM_VERS = 2.0
CREATION_DATE  = 
ORIGINATOR     = 

OBJECT_NAME    = CZ-2C R/B
OBJECT_ID      = 2011-030B
CENTER_NAME    = EARTH
REF_FRAME      = TEME
TIME_SYSTEM    = UTC
MEAN_ELEMENT_THEORY = SGP/SGP4

EPOCH          = 2026-03-07T18:54:39.462336
MEAN_MOTION    = 14.81214579
ECCENTRICITY   = .00526001
INCLINATION    = 97.8549
RA_OF_ASC_NODE = 24.0892
ARG_OF_PERICENTER = 358.2553
MEAN_ANOMALY   = 62.7299

EPHEMERIS_TYPE = 0
CLASSIFICATION_TYPE = U
NORAD_CAT_ID   = 37731
ELEMENT_SET_NO = 999
REV_AT_EPOCH   = 78981
BSTAR          = .33666338E-3
MEAN_MOTION_DOT = .2629E-4
MEAN_MOTION_DDOT = 0

CCSDS_OMM_VERS = 2.0
CREATION_DATE  = 
ORIGINATOR     = 

OBJECT_NAME    = H-2A R/B
OBJECT_ID      = 2012-025E
CENTER_NAME    = EARTH
REF_FRAME      = TEME
TIME_SYSTEM    = UTC
MEAN_ELEMENT_THEORY = SGP/SGP4

EPOCH          = 2026-03-07T18:54:28.491264
MEAN_MOTION    = 14.95149505
ECCENTRICITY   = .00434635
INCLINATION    = 98.4738
RA_OF_ASC_NODE = 33.6817
ARG_OF_PERICENTER = 320.8302
MEAN_ANOMALY   = 38.9772

EPHEMERIS_TYPE = 0
CLASSIFICATION_TYPE = U
NORAD_CAT_ID   = 38341
ELEMENT_SET_NO = 999
REV_AT_EPOCH   = 74793
BSTAR          = .55152119E-3
MEAN_MOTION_DOT = .6101E-4
MEAN_MOTION_DDOT = 0

CCSDS_OMM_VERS = 2.0
CREATION_DATE  = 
ORIGINATOR     = 

OBJECT_NAME    = SHIJIAN-16 (SJ-16)
OBJECT_ID      = 2013-057A
CENTER_NAME    = EARTH
REF_FRAME      = TEME
TIME_SYSTEM    = UTC
MEAN_ELEMENT_THEORY = SGP/SGP4

EPOCH          = 2026-03-08T00:28:56.722080
MEAN_MOTION    = 14.92335828
ECCENTRICITY   = .0015523
INCLINATION    = 74.9736
RA_OF_ASC_NODE = 188.2477
ARG_OF_PERICENTER = 117.0519
MEAN_ANOMALY   = 243.2255

EPHEMERIS_TYPE = 0
CLASSIFICATION_TYPE = U
NORAD_CAT_ID   = 39358
ELEMENT_SET_NO = 999
REV_AT_EPOCH   = 67125
BSTAR          = .27033E-3
MEAN_MOTION_DOT = .2742E-4
MEAN_MOTION_DDOT = 0

CCSDS_OMM_VERS = 2.0
CREATION_DATE  = 
ORIGINATOR     = 

OBJECT_NAME    = SL-4 R/B
OBJECT_ID      = 2014-021B
CENTER_NAME    = EARTH
REF_FRAME      = TEME
TIME_SYSTEM    = UTC
MEAN_ELEMENT_THEORY = SGP/SGP4

EPOCH          = 2026-03-07T03:52:46.170336
MEAN_MOTION    = 15.39078300
ECCENTRICITY   = .00977987
INCLINATION    = 51.6088
RA_OF_ASC_NODE = 349.6101
ARG_OF_PERICENTER = 93.7843
MEAN_ANOMALY   = 267.4330

EPHEMERIS_TYPE = 0
CLASSIFICATION_TYPE = U
NORAD_CAT_ID   = 39679
ELEMENT_SET_NO = 999
REV_AT_EPOCH   = 65588
BSTAR          = .36867286E-3
MEAN_MOTION_DOT = .16718E-3
MEAN_MOTION_DDOT = 0

